{
   "SPUTNIK 1": {
      "TLEs": [
         [
            "historical.txt", 
            [
               "1 00002U 57001B   57277.80972234  .00352343  00000-0 15670-2 0     0",
               "2 00002  65.1000 339.9400 0520000 058.0000 334.6900 14.92723492     6"

            ]
         ]
      ], 
      "name": "SPUTNIK 1"
   }
}
